[{"OBJECT_NAME":"ONEWEB-0607","OBJECT_ID":"2022-166AF","EPOCH":"2026-02-21T14:43:34.327200","MEAN_MOTION":13.21825059,"ECCENTRICITY":0.00014523,"INCLINATION":87.9176,"RA_OF_ASC_NODE":267.018,"ARG_OF_PERICENTER":84.7611,"MEAN_ANOMALY":275.3688,"EPHEMERIS_TYPE":0,"CLASSIFICATION_TYPE":"U","NORAD_CAT_ID":54671,"ELEMENT_SET_NO":999,"REV_AT_EPOCH":15627,"BSTAR":0.00015666995,"MEAN_MOTION_DOT":7.8e-7,"MEAN_MOTION_DDOT":0},{"OBJECT_NAME":"ONEWEB-0608","OBJECT_ID":"2022-166AG","EPOCH":"2026-02-21T13:04:02.453376","MEAN_MOTION":13.21826002,"ECCENTRICITY":0.00015019,"INCLINATION":87.9181,"RA_OF_ASC_NODE":267.024,"ARG_OF_PERICENTER":67.8038,"MEAN_ANOMALY":292.3255,"EPHEMERIS_TYPE":0,"CLASSIFICATION_TYPE":"U","NORAD_CAT_ID":54672,"ELEMENT_SET_NO":999,"REV_AT_EPOCH":15627,"BSTAR":5.8464303e-5,"MEAN_MOTION_DOT":3.7e-7,"MEAN_MOTION_DDOT":0},{"OBJECT_NAME":"ONEWEB-0610","OBJECT_ID":"2022-166AH","EPOCH":"2026-02-21T14:24:35.116416","MEAN_MOTION":13.21825813,"ECCENTRICITY":0.00013415,"INCLINATION":87.9166,"RA_OF_ASC_NODE":267.039,"ARG_OF_PERICENTER":63.4011,"MEAN_ANOMALY":296.726,"EPHEMERIS_TYPE":0,"CLASSIFICATION_TYPE":"U","NORAD_CAT_ID":54673,"ELEMENT_SET_NO":999,"REV_AT_EPOCH":15618,"BSTAR":6.8240425e-5,"MEAN_MOTION_DOT":4.1e-7,"MEAN_MOTION_DDOT":0},{"OBJECT_NAME":"ONEWEB-0611","OBJECT_ID":"2022-166AJ","EPOCH":"2026-02-21T12:26:08.996352","MEAN_MOTION":13.21827046,"ECCENTRICITY":0.00016384,"INCLINATION":87.917,"RA_OF_ASC_NODE":267.0526,"ARG_OF_PERICENTER":92.8576,"MEAN_ANOMALY":267.2746,"EPHEMERIS_TYPE":0,"CLASSIFICATION_TYPE":"U","NORAD_CAT_ID":54674,"ELEMENT_SET_NO":999,"REV_AT_EPOCH":15616,"BSTAR":-6.8539388e-5,"MEAN_MOTION_DOT":-1.5e-7,"MEAN_MOTION_DDOT":0},{"OBJECT_NAME":"ONEWEB-0612","OBJECT_ID":"2022-166AK","EPOCH":"2026-02-21T14:34:05.963808","MEAN_MOTION":13.21825346,"ECCENTRICITY":0.00015011,"INCLINATION":87.918,"RA_OF_ASC_NODE":267.0166,"ARG_OF_PERICENTER":86.4634,"MEAN_ANOMALY":273.6671,"EPHEMERIS_TYPE":0,"CLASSIFICATION_TYPE":"U","NORAD_CAT_ID":54675,"ELEMENT_SET_NO":999,"REV_AT_EPOCH":15616,"BSTAR":8.7520703e-5,"MEAN_MOTION_DOT":4.9e-7,"MEAN_MOTION_DDOT":0},{"OBJECT_NAME":"ONEWEB-0615","OBJECT_ID":"2022-166AL","EPOCH":"2026-02-21T14:05:39.130080","MEAN_MOTION":13.21824969,"ECCENTRICITY":0.00015785,"INCLINATION":87.9174,"RA_OF_ASC_NODE":267.0463,"ARG_OF_PERICENTER":87.76,"MEAN_ANOMALY":272.3714,"EPHEMERIS_TYPE":0,"CLASSIFICATION_TYPE":"U","NORAD_CAT_ID":54676,"ELEMENT_SET_NO":999,"REV_AT_EPOCH":15617,"BSTAR":-0.00010377932,"MEAN_MOTION_DOT":-3.0e-7,"MEAN_MOTION_DDOT":0},{"OBJECT_NAME":"ONEWEB-0655","OBJECT_ID":"2022-166AM","EPOCH":"2026-02-21T13:30:06.512832","MEAN_MOTION":13.21824909,"ECCENTRICITY":0.00012897,"INCLINATION":87.9173,"RA_OF_ASC_NODE":267.0536,"ARG_OF_PERICENTER":88.4285,"MEAN_ANOMALY":271.6996,"EPHEMERIS_TYPE":0,"CLASSIFICATION_TYPE":"U","NORAD_CAT_ID":54677,"ELEMENT_SET_NO":999,"REV_AT_EPOCH":15616,"BSTAR":-3.9419395e-5,"MEAN_MOTION_DOT":-3.0e-8,"MEAN_MOTION_DDOT":0},{"OBJECT_NAME":"ONEWEB-0659","OBJECT_ID":"2022-166AN","EPOCH":"2026-02-21T12:04:47.931456","MEAN_MOTION":13.2182554,"ECCENTRICITY":0.00016672,"INCLINATION":87.9172,"RA_OF_ASC_NODE":267.0657,"ARG_OF_PERICENTER":88.2138,"MEAN_ANOMALY":271.9187,"EPHEMERIS_TYPE":0,"CLASSIFICATION_TYPE":"U","NORAD_CAT_ID":54678,"ELEMENT_SET_NO":999,"REV_AT_EPOCH":15624,"BSTAR":-8.0955456e-5,"MEAN_MOTION_DOT":-2.0e-7,"MEAN_MOTION_DDOT":0},{"OBJECT_NAME":"ONEWEB-0685","OBJECT_ID":"2022-166AP","EPOCH":"2026-02-21T12:05:08.096352","MEAN_MOTION":13.21811168,"ECCENTRICITY":0.00014302,"INCLINATION":87.917,"RA_OF_ASC_NODE":267.0613,"ARG_OF_PERICENTER":82.0754,"MEAN_ANOMALY":278.0542,"EPHEMERIS_TYPE":0,"CLASSIFICATION_TYPE":"U","NORAD_CAT_ID":54679,"ELEMENT_SET_NO":999,"REV_AT_EPOCH":15613,"BSTAR":-0.00013286305,"MEAN_MOTION_DOT":-4.2e-7,"MEAN_MOTION_DDOT":0},{"OBJECT_NAME":"ONEWEB-0712","OBJECT_ID":"2022-166AQ","EPOCH":"2026-02-21T13:04:15.817728","MEAN_MOTION":13.16592653,"ECCENTRICITY":0.00011328,"INCLINATION":87.9001,"RA_OF_ASC_NODE":251.7846,"ARG_OF_PERICENTER":107.6771,"MEAN_ANOMALY":252.4484,"EPHEMERIS_TYPE":0,"CLASSIFICATION_TYPE":"U","NORAD_CAT_ID":54680,"ELEMENT_SET_NO":999,"REV_AT_EPOCH":15684,"BSTAR":0.00020456427,"MEAN_MOTION_DOT":9.1e-7,"MEAN_MOTION_DDOT":0},{"OBJECT_NAME":"ONEWEB-0714","OBJECT_ID":"2022-166AR","EPOCH":"2026-02-21T14:03:16.035264","MEAN_MOTION":13.21826274,"ECCENTRICITY":0.00013544,"INCLINATION":87.9172,"RA_OF_ASC_NODE":267.0396,"ARG_OF_PERICENTER":86.4554,"MEAN_ANOMALY":273.6735,"EPHEMERIS_TYPE":0,"CLASSIFICATION_TYPE":"U","NORAD_CAT_ID":54681,"ELEMENT_SET_NO":999,"REV_AT_EPOCH":15626,"BSTAR":2.9206509e-5,"MEAN_MOTION_DOT":2.5e-7,"MEAN_MOTION_DDOT":0},{"OBJECT_NAME":"ONEWEB-0532","OBJECT_ID":"2023-004A","EPOCH":"2026-02-21T11:00:14.330016","MEAN_MOTION":13.17648751,"ECCENTRICITY":0.00021561,"INCLINATION":87.913,"RA_OF_ASC_NODE":28.8465,"ARG_OF_PERICENTER":75.9127,"MEAN_ANOMALY":284.2244,"EPHEMERIS_TYPE":0,"CLASSIFICATION_TYPE":"U","NORAD_CAT_ID":55140,"ELEMENT_SET_NO":999,"REV_AT_EPOCH":15234,"BSTAR":0.00013546488,"MEAN_MOTION_DOT":6.5e-7,"MEAN_MOTION_DDOT":0},{"OBJECT_NAME":"ONEWEB-0533","OBJECT_ID":"2023-004B","EPOCH":"2026-02-21T10:11:11.975424","MEAN_MOTION":13.12443242,"ECCENTRICITY":0.0001687,"INCLINATION":87.8981,"RA_OF_ASC_NODE":13.6409,"ARG_OF_PERICENTER":78.5885,"MEAN_ANOMALY":281.5433,"EPHEMERIS_TYPE":0,"CLASSIFICATION_TYPE":"U","NORAD_CAT_ID":55141,"ELEMENT_SET_NO":999,"REV_AT_EPOCH":15287,"BSTAR":0.0010135492,"MEAN_MOTION_DOT":3.77e-6,"MEAN_MOTION_DDOT":0},{"OBJECT_NAME":"ONEWEB-0541","OBJECT_ID":"2023-004C","EPOCH":"2026-02-21T12:23:36.545280","MEAN_MOTION":13.11415402,"ECCENTRICITY":0.00019683,"INCLINATION":87.884,"RA_OF_ASC_NODE":44.0566,"ARG_OF_PERICENTER":85.7944,"MEAN_ANOMALY":274.3409,"EPHEMERIS_TYPE":0,"CLASSIFICATION_TYPE":"U","NORAD_CAT_ID":55142,"ELEMENT_SET_NO":999,"REV_AT_EPOCH":15078,"BSTAR":0.00031052148,"MEAN_MOTION_DOT":1.23e-6,"MEAN_MOTION_DDOT":0},{"OBJECT_NAME":"ONEWEB-0543","OBJECT_ID":"2023-004D","EPOCH":"2026-02-21T09:01:51.757536","MEAN_MOTION":13.18685904,"ECCENTRICITY":0.00015893,"INCLINATION":87.9219,"RA_OF_ASC_NODE":358.476,"ARG_OF_PERICENTER":85.4482,"MEAN_ANOMALY":274.6832,"EPHEMERIS_TYPE":0,"CLASSIFICATION_TYPE":"U","NORAD_CAT_ID":55143,"ELEMENT_SET_NO":999,"REV_AT_EPOCH":15443,"BSTAR":0.00016717694,"MEAN_MOTION_DOT":7.9e-7,"MEAN_MOTION_DDOT":0},{"OBJECT_NAME":"ONEWEB-0544","OBJECT_ID":"2023-004E","EPOCH":"2026-02-21T07:03:05.847552","MEAN_MOTION":13.18685495,"ECCENTRICITY":0.00019244,"INCLINATION":87.923,"RA_OF_ASC_NODE":358.4876,"ARG_OF_PERICENTER":87.8763,"MEAN_ANOMALY":272.2589,"EPHEMERIS_TYPE":0,"CLASSIFICATION_TYPE":"U","NORAD_CAT_ID":55144,"ELEMENT_SET_NO":999,"REV_AT_EPOCH":15442,"BSTAR":0.00014068227,"MEAN_MOTION_DOT":6.8e-7,"MEAN_MOTION_DDOT":0},{"OBJECT_NAME":"ONEWEB-0560","OBJECT_ID":"2023-004F","EPOCH":"2026-02-21T06:53:35.474496","MEAN_MOTION":13.18685157,"ECCENTRICITY":0.0001865,"INCLINATION":87.9234,"RA_OF_ASC_NODE":358.4783,"ARG_OF_PERICENTER":88.3621,"MEAN_ANOMALY":271.7724,"EPHEMERIS_TYPE":0,"CLASSIFICATION_TYPE":"U","NORAD_CAT_ID":55145,"ELEMENT_SET_NO":999,"REV_AT_EPOCH":15443,"BSTAR":0.00019168,"MEAN_MOTION_DOT":8.8e-7,"MEAN_MOTION_DDOT":0}]
