ONEWEB-0607             
1 54671U 22166AF  26052.61359175  .00000078  00000+0  15667-3 0  9994
2 54671  87.9176 267.0180 0001452  84.7611 275.3688 13.21825059156272
ONEWEB-0608             
1 54672U 22166AG  26052.54447284  .00000037  00000+0  58464-4 0  9994
2 54672  87.9181 267.0240 0001501  67.8038 292.3255 13.21826002156274
ONEWEB-0610             
1 54673U 22166AH  26052.60040644  .00000041  00000+0  68240-4 0  9999
2 54673  87.9166 267.0390 0001341  63.4011 296.7260 13.21825813156182
ONEWEB-0611             
1 54674U 22166AJ  26052.51815968 -.00000015  00000+0 -68539-4 0  9993
2 54674  87.9170 267.0526 0001638  92.8576 267.2746 13.21827046156160
ONEWEB-0612             
1 54675U 22166AK  26052.60701347  .00000049  00000+0  87521-4 0  9996
2 54675  87.9180 267.0166 0001501  86.4634 273.6671 13.21825346156164
ONEWEB-0615             
1 54676U 22166AL  26052.58725845 -.00000030  00000+0 -10378-3 0  9990
2 54676  87.9174 267.0463 0001578  87.7600 272.3714 13.21824969156174
ONEWEB-0655             
1 54677U 22166AM  26052.56257538 -.00000003  00000+0 -39419-4 0  9996
2 54677  87.9173 267.0536 0001289  88.4285 271.6996 13.21824909156168
ONEWEB-0659             
1 54678U 22166AN  26052.50333254 -.00000020  00000+0 -80955-4 0  9991
2 54678  87.9172 267.0657 0001667  88.2138 271.9187 13.21825540156243
ONEWEB-0685             
1 54679U 22166AP  26052.50356593 -.00000042  00000+0 -13286-3 0  9999
2 54679  87.9170 267.0613 0001430  82.0754 278.0542 13.21811168156130
ONEWEB-0712             
1 54680U 22166AQ  26052.54462752  .00000091  00000+0  20456-3 0  9999
2 54680  87.9001 251.7846 0001132 107.6771 252.4484 13.16592653156843
ONEWEB-0714             
1 54681U 22166AR  26052.58560226  .00000025  00000+0  29207-4 0  9990
2 54681  87.9172 267.0396 0001354  86.4554 273.6735 13.21826274156267
ONEWEB-0532             
1 55140U 23004A   26052.45849919  .00000065  00000+0  13546-3 0  9990
2 55140  87.9130  28.8465 0002156  75.9127 284.2244 13.17648751152347
ONEWEB-0533             
1 55141U 23004B   26052.42444416  .00000377  00000+0  10135-2 0  9997
2 55141  87.8981  13.6409 0001687  78.5885 281.5433 13.12443242152870
ONEWEB-0541             
1 55142U 23004C   26052.51639520  .00000123  00000+0  31052-3 0  9991
2 55142  87.8840  44.0566 0001968  85.7944 274.3409 13.11415402150782
ONEWEB-0543             
1 55143U 23004D   26052.37629349  .00000079  00000+0  16718-3 0  9996
2 55143  87.9219 358.4760 0001589  85.4482 274.6832 13.18685904154437
ONEWEB-0544             
1 55144U 23004E   26052.29381768  .00000068  00000+0  14068-3 0  9992
2 55144  87.9230 358.4876 0001924  87.8763 272.2589 13.18685495154427
ONEWEB-0560             
1 55145U 23004F   26052.28721614  .00000088  00000+0  19168-3 0  9998
2 55145  87.9234 358.4783 0001865  88.3621 271.7724 13.18685157154433
